COSMOS 2251 DEB         
1 35602U 93036AMV 17346.56555735  .00000779  00000-0  53956-4 0  9994
2 35602  74.0238  50.6748 0172771 174.5599 253.4036 14.96516430462247
